[{"OBJECT_NAME":"CZ-2F R/B","OBJECT_ID":"2026-024B","EPOCH":"2026-03-05T06:34:43.288896","MEAN_MOTION":15.34128164,"ECCENTRICITY":0.01748965,"INCLINATION":49.9877,"RA_OF_ASC_NODE":36.7422,"ARG_OF_PERICENTER":256.5805,"MEAN_ANOMALY":101.5608,"EPHEMERIS_TYPE":0,"CLASSIFICATION_TYPE":"U","NORAD_CAT_ID":67690,"ELEMENT_SET_NO":999,"REV_AT_EPOCH":401,"BSTAR":0.00039950481,"MEAN_MOTION_DOT":0.00021813,"MEAN_MOTION_DDOT":0},{"OBJECT_NAME":"CZ-2F DEB","OBJECT_ID":"2026-024C","EPOCH":"2026-03-05T07:03:10.435392","MEAN_MOTION":15.98259881,"ECCENTRICITY":0.01477336,"INCLINATION":49.9033,"RA_OF_ASC_NODE":28.1644,"ARG_OF_PERICENTER":271.1394,"MEAN_ANOMALY":87.2669,"EPHEMERIS_TYPE":0,"CLASSIFICATION_TYPE":"U","NORAD_CAT_ID":67691,"ELEMENT_SET_NO":999,"REV_AT_EPOCH":411,"BSTAR":0.00076523509,"MEAN_MOTION_DOT":0.01325722,"MEAN_MOTION_DDOT":1.1023397e-5},{"OBJECT_NAME":"CZ-2F DEB","OBJECT_ID":"2026-024D","EPOCH":"2026-03-05T06:49:11.393760","MEAN_MOTION":15.236426,"ECCENTRICITY":0.02378033,"INCLINATION":50.3186,"RA_OF_ASC_NODE":40.32,"ARG_OF_PERICENTER":262.6877,"MEAN_ANOMALY":94.7,"EPHEMERIS_TYPE":0,"CLASSIFICATION_TYPE":"U","NORAD_CAT_ID":67692,"ELEMENT_SET_NO":999,"REV_AT_EPOCH":395,"BSTAR":0.0044560915,"MEAN_MOTION_DOT":0.00251314,"MEAN_MOTION_DDOT":0},{"OBJECT_NAME":"STARLINK-36748","OBJECT_ID":"2026-025A","EPOCH":"2026-03-05T06:51:14.524992","MEAN_MOTION":15.75262076,"ECCENTRICITY":0.0001606,"INCLINATION":97.2835,"RA_OF_ASC_NODE":175.6002,"ARG_OF_PERICENTER":67.928,"MEAN_ANOMALY":292.2156,"EPHEMERIS_TYPE":0,"CLASSIFICATION_TYPE":"U","NORAD_CAT_ID":67693,"ELEMENT_SET_NO":999,"REV_AT_EPOCH":524,"BSTAR":0.0011572737,"MEAN_MOTION_DOT":0.00176653,"MEAN_MOTION_DDOT":0},{"OBJECT_NAME":"STARLINK-36753","OBJECT_ID":"2026-025B","EPOCH":"2026-03-05T03:37:27.436800","MEAN_MOTION":15.71597631,"ECCENTRICITY":0.00161954,"INCLINATION":97.2834,"RA_OF_ASC_NODE":175.4766,"ARG_OF_PERICENTER":150.6426,"MEAN_ANOMALY":209.5751,"EPHEMERIS_TYPE":0,"CLASSIFICATION_TYPE":"U","NORAD_CAT_ID":67694,"ELEMENT_SET_NO":999,"REV_AT_EPOCH":523,"BSTAR":0.00062672625,"MEAN_MOTION_DOT":0.00081481,"MEAN_MOTION_DDOT":0},{"OBJECT_NAME":"STARLINK-36750","OBJECT_ID":"2026-025C","EPOCH":"2026-03-05T05:57:58.109472","MEAN_MOTION":15.80922603,"ECCENTRICITY":0.00012586,"INCLINATION":97.2837,"RA_OF_ASC_NODE":175.6515,"ARG_OF_PERICENTER":166.092,"MEAN_ANOMALY":194.0383,"EPHEMERIS_TYPE":0,"CLASSIFICATION_TYPE":"U","NORAD_CAT_ID":67695,"ELEMENT_SET_NO":999,"REV_AT_EPOCH":524,"BSTAR":0.0019907058,"MEAN_MOTION_DOT":0.00401198,"MEAN_MOTION_DDOT":0},{"OBJECT_NAME":"STARLINK-36401","OBJECT_ID":"2026-025D","EPOCH":"2026-03-05T06:20:14.556768","MEAN_MOTION":15.75282581,"ECCENTRICITY":0.00013378,"INCLINATION":97.2851,"RA_OF_ASC_NODE":175.6299,"ARG_OF_PERICENTER":62.6277,"MEAN_ANOMALY":297.5124,"EPHEMERIS_TYPE":0,"CLASSIFICATION_TYPE":"U","NORAD_CAT_ID":67696,"ELEMENT_SET_NO":999,"REV_AT_EPOCH":524,"BSTAR":0.0016518853,"MEAN_MOTION_DOT":0.00254771,"MEAN_MOTION_DDOT":0},{"OBJECT_NAME":"STARLINK-36704","OBJECT_ID":"2026-025E","EPOCH":"2026-03-05T05:05:32.052192","MEAN_MOTION":15.75242687,"ECCENTRICITY":0.00016032,"INCLINATION":97.2847,"RA_OF_ASC_NODE":175.5449,"ARG_OF_PERICENTER":56.2301,"MEAN_ANOMALY":303.9117,"EPHEMERIS_TYPE":0,"CLASSIFICATION_TYPE":"U","NORAD_CAT_ID":67697,"ELEMENT_SET_NO":999,"REV_AT_EPOCH":523,"BSTAR":0.0018867099,"MEAN_MOTION_DOT":0.00291781,"MEAN_MOTION_DDOT":0},{"OBJECT_NAME":"STARLINK-36697","OBJECT_ID":"2026-025F","EPOCH":"2026-03-05T05:48:40.029408","MEAN_MOTION":15.80987592,"ECCENTRICITY":0.00010719,"INCLINATION":97.2848,"RA_OF_ASC_NODE":175.6596,"ARG_OF_PERICENTER":77.7009,"MEAN_ANOMALY":282.4379,"EPHEMERIS_TYPE":0,"CLASSIFICATION_TYPE":"U","NORAD_CAT_ID":67698,"ELEMENT_SET_NO":999,"REV_AT_EPOCH":524,"BSTAR":0.0020735023,"MEAN_MOTION_DOT":0.00420057,"MEAN_MOTION_DDOT":0},{"OBJECT_NAME":"STARLINK-36716","OBJECT_ID":"2026-025G","EPOCH":"2026-03-05T06:00:02.999808","MEAN_MOTION":15.75154701,"ECCENTRICITY":0.00012328,"INCLINATION":97.2849,"RA_OF_ASC_NODE":175.659,"ARG_OF_PERICENTER":71.4388,"MEAN_ANOMALY":311.2318,"EPHEMERIS_TYPE":0,"CLASSIFICATION_TYPE":"U","NORAD_CAT_ID":67699,"ELEMENT_SET_NO":999,"REV_AT_EPOCH":530,"BSTAR":0.00042426012,"MEAN_MOTION_DOT":0.00063526,"MEAN_MOTION_DDOT":0},{"OBJECT_NAME":"STARLINK-36712","OBJECT_ID":"2026-025H","EPOCH":"2026-03-05T06:22:46.766784","MEAN_MOTION":15.75222822,"ECCENTRICITY":5.17e-5,"INCLINATION":97.2847,"RA_OF_ASC_NODE":175.6255,"ARG_OF_PERICENTER":355.3474,"MEAN_ANOMALY":4.7787,"EPHEMERIS_TYPE":0,"CLASSIFICATION_TYPE":"U","NORAD_CAT_ID":67700,"ELEMENT_SET_NO":999,"REV_AT_EPOCH":524,"BSTAR":0.0017363056,"MEAN_MOTION_DOT":0.00267519,"MEAN_MOTION_DDOT":0},{"OBJECT_NAME":"STARLINK-36713","OBJECT_ID":"2026-025J","EPOCH":"2026-03-05T06:25:19.043328","MEAN_MOTION":15.75210325,"ECCENTRICITY":0.0001362,"INCLINATION":97.2857,"RA_OF_ASC_NODE":175.6228,"ARG_OF_PERICENTER":104.1132,"MEAN_ANOMALY":256.0285,"EPHEMERIS_TYPE":0,"CLASSIFICATION_TYPE":"U","NORAD_CAT_ID":67701,"ELEMENT_SET_NO":999,"REV_AT_EPOCH":525,"BSTAR":0.00087791761,"MEAN_MOTION_DOT":0.00132992,"MEAN_MOTION_DDOT":0},{"OBJECT_NAME":"STARLINK-36695","OBJECT_ID":"2026-025K","EPOCH":"2026-03-05T06:28:22.448064","MEAN_MOTION":15.75265163,"ECCENTRICITY":0.00013084,"INCLINATION":97.2862,"RA_OF_ASC_NODE":175.6172,"ARG_OF_PERICENTER":64.1779,"MEAN_ANOMALY":295.9621,"EPHEMERIS_TYPE":0,"CLASSIFICATION_TYPE":"U","NORAD_CAT_ID":67702,"ELEMENT_SET_NO":999,"REV_AT_EPOCH":524,"BSTAR":0.0013750304,"MEAN_MOTION_DOT":0.00210791,"MEAN_MOTION_DDOT":0},{"OBJECT_NAME":"STARLINK-36630","OBJECT_ID":"2026-025L","EPOCH":"2026-03-04T06:49:54.557472","MEAN_MOTION":15.80886698,"ECCENTRICITY":0.00020658,"INCLINATION":97.2851,"RA_OF_ASC_NODE":174.6635,"ARG_OF_PERICENTER":101.8148,"MEAN_ANOMALY":258.3352,"EPHEMERIS_TYPE":0,"CLASSIFICATION_TYPE":"U","NORAD_CAT_ID":67703,"ELEMENT_SET_NO":999,"REV_AT_EPOCH":509,"BSTAR":0.00088510392,"MEAN_MOTION_DOT":0.00173374,"MEAN_MOTION_DDOT":0},{"OBJECT_NAME":"STARLINK-36338","OBJECT_ID":"2026-025M","EPOCH":"2026-03-05T05:57:22.551552","MEAN_MOTION":15.75302844,"ECCENTRICITY":0.00012452,"INCLINATION":97.2845,"RA_OF_ASC_NODE":175.6477,"ARG_OF_PERICENTER":176.598,"MEAN_ANOMALY":183.5294,"EPHEMERIS_TYPE":0,"CLASSIFICATION_TYPE":"U","NORAD_CAT_ID":67704,"ELEMENT_SET_NO":999,"REV_AT_EPOCH":524,"BSTAR":0.0019333523,"MEAN_MOTION_DOT":0.00300071,"MEAN_MOTION_DDOT":0},{"OBJECT_NAME":"STARLINK-36316","OBJECT_ID":"2026-025N","EPOCH":"2026-03-05T07:43:05.054592","MEAN_MOTION":15.75174398,"ECCENTRICITY":0.00014267,"INCLINATION":97.2857,"RA_OF_ASC_NODE":175.7034,"ARG_OF_PERICENTER":68.015,"MEAN_ANOMALY":292.1267,"EPHEMERIS_TYPE":0,"CLASSIFICATION_TYPE":"U","NORAD_CAT_ID":67705,"ELEMENT_SET_NO":999,"REV_AT_EPOCH":525,"BSTAR":0.0020130239,"MEAN_MOTION_DOT":0.0031112,"MEAN_MOTION_DDOT":0}]
