CZ-2F R/B               
1 67690U 26024B   26064.27411214  .00021813  00000+0  39950-3 0  9995
2 67690  49.9877  36.7422 0174896 256.5805 101.5608 15.34128164  4015
CZ-2F DEB               
1 67691U 26024C   26064.29387078  .01325722  11023-4  76524-3 0  9995
2 67691  49.9033  28.1644 0147733 271.1394  87.2669 15.98259881  4116
CZ-2F DEB               
1 67692U 26024D   26064.28415965  .00251314  00000+0  44561-2 0  9999
2 67692  50.3186  40.3200 0237803 262.6877  94.7000 15.23642600  3951
STARLINK-36748          
1 67693U 26025A   26064.28558478  .00176653  00000+0  11573-2 0  9997
2 67693  97.2835 175.6002 0001606  67.9280 292.2156 15.75262076  5242
STARLINK-36753          
1 67694U 26025B   26064.15101200  .00081481  00000+0  62673-3 0  9993
2 67694  97.2834 175.4766 0016195 150.6426 209.5751 15.71597631  5233
STARLINK-36750          
1 67695U 26025C   26064.24858923  .00401198  00000+0  19907-2 0  9997
2 67695  97.2837 175.6515 0001258 166.0920 194.0383 15.80922603  5246
STARLINK-36401          
1 67696U 26025D   26064.26405737  .00254771  00000+0  16519-2 0  9990
2 67696  97.2851 175.6299 0001337  62.6277 297.5124 15.75282581  5246
STARLINK-36704          
1 67697U 26025E   26064.21217653  .00291781  00000+0  18867-2 0  9994
2 67697  97.2847 175.5449 0001603  56.2301 303.9117 15.75242687  5237
STARLINK-36697          
1 67698U 26025F   26064.24212997  .00420057  00000+0  20735-2 0  9991
2 67698  97.2848 175.6596 0001071  77.7009 282.4379 15.80987592  5244
STARLINK-36716          
1 67699U 26025G   26064.25003472  .00063526  00000+0  42426-3 0  9995
2 67699  97.2849 175.6590 0001232  71.4388 311.2318 15.75154701  5303
STARLINK-36712          
1 67700U 26025H   26064.26581906  .00267519  00000+0  17363-2 0  9991
2 67700  97.2847 175.6255 0000517 355.3474   4.7787 15.75222822  5244
STARLINK-36713          
1 67701U 26025J   26064.26758152  .00132992  00000+0  87792-3 0  9991
2 67701  97.2857 175.6228 0001362 104.1132 256.0285 15.75210325  5257
STARLINK-36695          
1 67702U 26025K   26064.26970426  .00210791  00000+0  13750-2 0  9998
2 67702  97.2862 175.6172 0001308  64.1779 295.9621 15.75265163  5249
STARLINK-36630          
1 67703U 26025L   26063.28465923  .00173374  00000+0  88510-3 0  9993
2 67703  97.2851 174.6635 0002065 101.8148 258.3352 15.80886698  5096
STARLINK-36338          
1 67704U 26025M   26064.24817768  .00300071  00000+0  19334-2 0  9992
2 67704  97.2845 175.6477 0001245 176.5980 183.5294 15.75302844  5248
STARLINK-36316          
1 67705U 26025N   26064.32158628  .00311120  00000+0  20130-2 0  9998
2 67705  97.2857 175.7034 0001426  68.0150 292.1267 15.75174398  5256
